[
    {
        "Altitude(m)": 554778.5610725967,
        "Argument of Periapsis(deg)": 0.006622991110713501,
        "Eccentricity": 0.0,
        "Inclination(deg)": 53.0,
        "Latitude(deg)": -3.650857622027116,
        "Longitude(deg)": 106.48614129735708,
        "Mean Anomaly(deg)": -4.453807132422413,
        "RAAN(deg)": 209.99014336852804,
        "Satellite Name": "Starlink Shell 1 945",
        "Satellite Number": 945,
        "Semi-Major Axis(m)": 6931778.249405717,
        "Time(s)": 190
    },
    {
        "Altitude(m)": 554694.55743629,
        "Argument of Periapsis(deg)": 0.0069715695902247375,
        "Eccentricity": 0.0,
        "Inclination(deg)": 53.0,
        "Latitude(deg)": -3.1475034065441863,
        "Longitude(deg)": 106.8227796454065,
        "Mean Anomaly(deg)": -3.8269759288657426,
        "RAAN(deg)": 209.98962459845055,
        "Satellite Name": "Starlink Shell 1 945",
        "Satellite Number": 945,
        "Semi-Major Axis(m)": 6931778.249405717,
        "Time(s)": 200
    },
    {
        "Altitude(m)": 554613.2753533215,
        "Argument of Periapsis(deg)": 0.007320148069735974,
        "Eccentricity": 0.0,
        "Inclination(deg)": 53.0,
        "Latitude(deg)": -2.643996192366016,
        "Longitude(deg)": 107.15906391832412,
        "Mean Anomaly(deg)": -3.200144725308996,
        "RAAN(deg)": 209.98910582837308,
        "Satellite Name": "Starlink Shell 1 945",
        "Satellite Number": 945,
        "Semi-Major Axis(m)": 6931778.249405717,
        "Time(s)": 210
    },
    {
        "Altitude(m)": 554534.7305639145,
        "Argument of Periapsis(deg)": 0.007668726549247212,
        "Eccentricity": 0.0,
        "Inclination(deg)": 53.0,
        "Latitude(deg)": -2.1403590439554443,
        "Longitude(deg)": 107.49505202415425,
        "Mean Anomaly(deg)": -2.5733135217523255,
        "RAAN(deg)": 209.98858705829562,
        "Satellite Name": "Starlink Shell 1 945",
        "Satellite Number": 945,
        "Semi-Major Axis(m)": 6931778.249405717,
        "Time(s)": 220
    },
    {
        "Altitude(m)": 554458.9374688595,
        "Argument of Periapsis(deg)": 0.00801730502875845,
        "Eccentricity": 0.0,
        "Inclination(deg)": 53.0,
        "Latitude(deg)": -1.6366149680456898,
        "Longitude(deg)": 107.83080174413456,
        "Mean Anomaly(deg)": -1.9464823181955537,
        "RAAN(deg)": 209.98806828821813,
        "Satellite Name": "Starlink Shell 1 945",
        "Satellite Number": 945,
        "Semi-Major Axis(m)": 6931778.249405717,
        "Time(s)": 230
    },
    {
        "Altitude(m)": 554385.9091250851,
        "Argument of Periapsis(deg)": 0.008365883508269684,
        "Eccentricity": 0.0,
        "Inclination(deg)": 53.0,
        "Latitude(deg)": -1.1327869254336251,
        "Longitude(deg)": 108.1663712622714,
        "Mean Anomaly(deg)": -1.319651114638807,
        "RAAN(deg)": 209.98754951814067,
        "Satellite Name": "Starlink Shell 1 945",
        "Satellite Number": 945,
        "Semi-Major Axis(m)": 6931778.249405717,
        "Time(s)": 240
    },
    {
        "Altitude(m)": 554315.6572418843,
        "Argument of Periapsis(deg)": 0.008714461987780921,
        "Eccentricity": 0.0,
        "Inclination(deg)": 53.0,
        "Latitude(deg)": -0.6288978427260423,
        "Longitude(deg)": 108.50181818201494,
        "Mean Anomaly(deg)": -0.6928199110821623,
        "RAAN(deg)": 209.98703074806323,
        "Satellite Name": "Starlink Shell 1 945",
        "Satellite Number": 945,
        "Semi-Major Axis(m)": 6931778.249405717,
        "Time(s)": 250
    },
    {
        "Altitude(m)": 554248.1921778412,
        "Argument of Periapsis(deg)": 0.009063040467292158,
        "Eccentricity": 0.0,
        "Inclination(deg)": 53.0,
        "Latitude(deg)": -0.12497062405251966,
        "Longitude(deg)": 108.83720005578891,
        "Mean Anomaly(deg)": -0.06598870752549219,
        "RAAN(deg)": 209.98651197798574,
        "Satellite Name": "Starlink Shell 1 945",
        "Satellite Number": 945,
        "Semi-Major Axis(m)": 6931778.249405717,
        "Time(s)": 260
    },
    {
        "Altitude(m)": 554183.5229384061,
        "Argument of Periapsis(deg)": 0.009411618946803396,
        "Eccentricity": 0.0,
        "Inclination(deg)": 53.0,
        "Latitude(deg)": 0.3789718372442906,
        "Longitude(deg)": 109.17257491450768,
        "Mean Anomaly(deg)": 0.5608424960312798,
        "RAAN(deg)": 209.98599320790828,
        "Satellite Name": "Starlink Shell 1 945",
        "Satellite Number": 945,
        "Semi-Major Axis(m)": 6931778.249405717,
        "Time(s)": 270
    },
    {
        "Altitude(m)": 554121.6571741683,
        "Argument of Periapsis(deg)": 0.009760197426314633,
        "Eccentricity": 0.0,
        "Inclination(deg)": 53.0,
        "Latitude(deg)": 0.882906646930858,
        "Longitude(deg)": 109.50800028421597,
        "Mean Anomaly(deg)": 1.1876736995880264,
        "RAAN(deg)": 209.9854744378308,
        "Satellite Name": "Starlink Shell 1 945",
        "Satellite Number": 945,
        "Semi-Major Axis(m)": 6931778.249405717,
        "Time(s)": 280
    },
    {
        "Altitude(m)": 554062.6011797868,
        "Argument of Periapsis(deg)": 0.01010877590582587,
        "Eccentricity": 0.0,
        "Inclination(deg)": 53.0,
        "Latitude(deg)": 1.386810898204994,
        "Longitude(deg)": 109.84353371560546,
        "Mean Anomaly(deg)": 1.8145049031446967,
        "RAAN(deg)": 209.98495566775327,
        "Satellite Name": "Starlink Shell 1 945",
        "Satellite Number": 945,
        "Semi-Major Axis(m)": 6931778.249405717,
        "Time(s)": 290
    },
    {
        "Altitude(m)": 554006.3598936431,
        "Argument of Periapsis(deg)": 0.010457354385337106,
        "Eccentricity": 0.0,
        "Inclination(deg)": 53.0,
        "Latitude(deg)": 1.8906616600072554,
        "Longitude(deg)": 110.1792333135425,
        "Mean Anomaly(deg)": 2.4413361067013413,
        "RAAN(deg)": 209.98443689767583,
        "Satellite Name": "Starlink Shell 1 945",
        "Satellite Number": 945,
        "Semi-Major Axis(m)": 6931778.249405717,
        "Time(s)": 300
    },
    {
        "Altitude(m)": 553952.9368980982,
        "Argument of Periapsis(deg)": 0.010805932864848343,
        "Eccentricity": 0.0,
        "Inclination(deg)": 53.0,
        "Latitude(deg)": 2.394435965310838,
        "Longitude(deg)": 110.51515675374083,
        "Mean Anomaly(deg)": 3.0681673102580875,
        "RAAN(deg)": 209.98391812759837,
        "Satellite Name": "Starlink Shell 1 945",
        "Satellite Number": 945,
        "Semi-Major Axis(m)": 6931778.249405717,
        "Time(s)": 310
    },
    {
        "Altitude(m)": 553902.3344205086,
        "Argument of Periapsis(deg)": 0.01115451134435958,
        "Eccentricity": 0.0,
        "Inclination(deg)": 53.0,
        "Latitude(deg)": 2.898110799377338,
        "Longitude(deg)": 110.85136181233406,
        "Mean Anomaly(deg)": 3.6949985138148853,
        "RAAN(deg)": 209.98339935752088,
        "Satellite Name": "Starlink Shell 1 945",
        "Satellite Number": 945,
        "Semi-Major Axis(m)": 6931778.249405717,
        "Time(s)": 320
    },
    {
        "Altitude(m)": 553854.5533348639,
        "Argument of Periapsis(deg)": 0.011503089823870818,
        "Eccentricity": 0.0,
        "Inclination(deg)": 53.0,
        "Latitude(deg)": 3.4016630879682523,
        "Longitude(deg)": 111.18790689548189,
        "Mean Anomaly(deg)": 4.321829717371529,
        "RAAN(deg)": 209.98288058744342,
        "Satellite Name": "Starlink Shell 1 945",
        "Satellite Number": 945,
        "Semi-Major Axis(m)": 6931778.249405717,
        "Time(s)": 330
    },
    {
        "Altitude(m)": 553809.5931641329,
        "Argument of Periapsis(deg)": 0.011851668303382053,
        "Eccentricity": 0.0,
        "Inclination(deg)": 53.0,
        "Latitude(deg)": 3.9050696855015263,
        "Longitude(deg)": 111.52485005614402,
        "Mean Anomaly(deg)": 4.948660920928277,
        "RAAN(deg)": 209.98236181736596,
        "Satellite Name": "Starlink Shell 1 945",
        "Satellite Number": 945,
        "Semi-Major Axis(m)": 6931778.249405717,
        "Time(s)": 340
    },
    {
        "Altitude(m)": 553767.452083253,
        "Argument of Periapsis(deg)": 0.012200246782893292,
        "Eccentricity": 0.0,
        "Inclination(deg)": 53.0,
        "Latitude(deg)": 4.408307363139177,
        "Longitude(deg)": 111.862249523775,
        "Mean Anomaly(deg)": 5.5754921244849465,
        "RAAN(deg)": 209.98184304728846,
        "Satellite Name": "Starlink Shell 1 945",
        "Satellite Number": 945,
        "Semi-Major Axis(m)": 6931778.249405717,
        "Time(s)": 350
    },
    {
        "Altitude(m)": 553728.1269228343,
        "Argument of Periapsis(deg)": 0.012548825262404526,
        "Eccentricity": 0.0,
        "Inclination(deg)": 53.0,
        "Latitude(deg)": 4.911352796797491,
        "Longitude(deg)": 112.20016423407438,
        "Mean Anomaly(deg)": 6.202323328041693,
        "RAAN(deg)": 209.981324277211,
        "Satellite Name": "Starlink Shell 1 945",
        "Satellite Number": 945,
        "Semi-Major Axis(m)": 6931778.249405717,
        "Time(s)": 360
    },
    {
        "Altitude(m)": 553691.6131734997,
        "Argument of Periapsis(deg)": 0.012897403741915765,
        "Eccentricity": 0.0,
        "Inclination(deg)": 53.0,
        "Latitude(deg)": 5.414182555066837,
        "Longitude(deg)": 112.53865284592409,
        "Mean Anomaly(deg)": 6.829154531598465,
        "RAAN(deg)": 209.9808055071335,
        "Satellite Name": "Starlink Shell 1 945",
        "Satellite Number": 945,
        "Semi-Major Axis(m)": 6931778.249405717,
        "Time(s)": 370
    }
]